QIANFAN-17              
1 60395U 24140S   25201.86278793  .00000103  00000+0  14123-3 0  9991
2 60395  88.9855 314.3808 0013038 261.7403  98.2270 13.50958102 48579
QIANFAN-18              
1 60396U 24140T   25201.91635364  .00000089  00000+0  12011-3 0  9996
2 60396  88.9848 313.9202 0012685 241.6067 118.3806 13.50953612 47978
QIANFAN-19              
1 61552U 24185A   25201.95808956  .00000306  00000+0  15338-3 0  9990
2 61552  88.9823  94.5491 0009276  58.2199 301.9890 14.14105840 49202
QIANFAN-20              
1 61553U 24185B   25201.92814945  .00000276  00000+0  15243-3 0  9994
2 61553  88.9823  94.7301 0008502  84.7443 275.4710 14.08658964 49100
QIANFAN-21              
1 61554U 24185C   25201.97957638  .00000439  00000+0  19094-3 0  9996
2 61554  88.9736  93.9527 0012868 108.2084 252.0509 14.22347709 49394
QIANFAN-22              
1 61555U 24185D   25201.92311216  .00000221  00000+0  18031-3 0  9997
2 61555  88.9809  95.1291 0009128  78.3445 281.8750 13.86231620 48874
QIANFAN-23              
1 61556U 24185E   25201.92440023  .00000409  00000+0  20002-3 0  9996
2 61556  88.9815  94.4296 0010319  67.3273 292.9005 14.16074958 49252
QIANFAN-24              
1 61557U 24185F   25201.89367290  .00000505  00000+0  21558-3 0  9991
2 61557  88.9796  94.0754 0011780  56.7663 303.4656 14.23550658 49416
